0 FENGYUN 1C DEB
1 30626U 99025ANH 13282.33117691  .00659573  00000-0  11579-1 0   348
2 30626 098.9432 204.9679 0033671 212.7914 276.0269 15.47584667358806
0 FENGYUN 1C DEB
1 30626U 99025ANH 13282.77011051  .00519712  00000-0  91353-2 0   359
2 30626 098.9431 205.5103 0033433 211.5067 201.5717 15.48043740358877
0 FENGYUN 1C DEB
1 30626U 99025ANH 13283.47145336  .01060205  00000-0  19398-1 0   370
2 30626 098.9337 206.3789 0031152 210.4471 149.5441 15.48763278358986
0 FENGYUN 1C DEB
1 30626U 99025ANH 13283.48204569  .00592020  00000-0  10071-1 0   367
2 30626 098.9423 206.3906 0033830 208.0400 210.9978 15.48718285358989
0 FENGYUN 1C DEB
1 30626U 99025ANH 13283.72987078  .00801626  00000-0  14537-1 0   396
2 30626 098.9289 206.6889 0031025 210.5572 149.4367 15.49020709359026
0 FENGYUN 1C DEB
1 30626U 99025ANH 13285.48422014  .00528205  00000-0  85066-2 0   389
2 30626 098.9415 208.8694 0034564 199.4215 221.6288 15.50464955359296
0 FENGYUN 1C DEB
1 30626U 99025ANH 13285.74144938  .00538570  00000-0  86107-2 0   398
2 30626 098.9413 209.1882 0034438 198.5924 217.4215 15.50639385359333
0 FENGYUN 1C DEB
1 30626U 99025ANH 13286.77360851  .00556718  00000-0  85787-2 0   405
2 30626 098.9412 210.4692 0034934 194.0717 222.0921 15.51594835359492
0 FENGYUN 1C DEB
1 30626U 99025ANH 13287.48346381  .00616639  00000-0  91789-2 0   415
2 30626 098.9413 211.3530 0035606 190.3283 229.4017 15.52335911359607
0 FENGYUN 1C DEB
1 30626U 99025ANH 13288.33265314  .00879120  00000-0  12339-1 0   426
2 30626 098.9411 212.4109 0035401 187.4826 296.7113 15.53543430359738
0 FENGYUN 1C DEB
1 30626U 99025ANH 13289.49078068  .00874290  00000-0  11588-1 0   431
2 30626 098.9407 213.8556 0035733 183.3094 297.4173 15.55115321359914
0 FENGYUN 1C DEB
1 30626U 99025ANH 13289.73879716  .00925044  00000-0  12059-1 0   446
2 30626 098.9420 214.1649 0035647 182.5220 246.0241 15.55432383359952
0 FENGYUN 1C DEB
1 30626U 99025ANH 13289.99577899  .00853411  00000-0  11038-1 0   456
2 30626 098.9419 214.4863 0035969 181.3063 245.5205 15.55827300359995
0 FENGYUN 1C DEB
1 30626U 99025ANH 13290.49827497  .00742286  00000-0  10166-1 0   475
2 30626 098.9234 215.1319 0034902 181.3005 178.8680 15.56597537360079
0 FENGYUN 1C DEB
1 30626U 99025ANH 13290.50910606  .00992457  00000-0  12347-1 0   461
2 30626 098.9410 215.1285 0035998 179.0192 241.8056 15.56503936360072
0 FENGYUN 1C DEB
1 30626U 99025ANH 13290.76556160  .01015538  00000-0  12405-1 0   473
2 30626 098.9409 215.4495 0035848 178.2884 238.9101 15.56941114360116
0 FENGYUN 1C DEB
1 30626U 99025ANH 13291.35630186  .00888710  00000-0  10600-1 0   485
2 30626 098.9409 216.1896 0036269 176.5369 310.7788 15.57898641360203
0 FENGYUN 1C DEB
1 30626U 99025ANH 13291.85540424  .00994386  00000-0  11385-1 0   494
2 30626 098.9405 216.8161 0036280 174.8668 230.6273 15.58709160360282
0 FENGYUN 1C DEB
1 30626U 99025ANH 13292.26031255  .00919353  00000-0  10354-1 0   505
2 30626 098.9403 217.3246 0036732 173.6985 342.9347 15.59320737360347
0 FENGYUN 1C DEB
1 30626U 99025ANH 13292.75039413  .01021747  00000-0  11037-1 0   515
2 30626 098.9398 217.9407 0036643 171.9360 214.8522 15.60157329360411
0 FENGYUN 1C DEB
1 30626U 99025ANH 13292.75601959  .00944164  00000-0  10252-1 0   520
2 30626 098.9400 217.9476 0036823 171.6491 246.7089 15.60212262360413
0 FENGYUN 1C DEB
1 30626U 99025ANH 13293.34480615  .01108119  00000-0  11392-1 0   530
2 30626 098.9387 218.6876 0037372 169.4981 314.8902 15.61199838360514
0 FENGYUN 1C DEB
1 30626U 99025ANH 13293.84377701  .01178290  00000-0  11839-1 0   540
2 30626 098.9383 219.3169 0036961 167.4871 240.3415 15.62076175360591
0 FENGYUN 1C DEB
1 30626U 99025ANH 13294.30629206  .01248829  00000-0  12058-1 0   553
2 30626 098.9386 219.9015 0037318 166.0503 321.8984 15.62935013360663
0 FENGYUN 1C DEB
1 30626U 99025ANH 13294.73643471  .01451748  00000-0  13336-1 0   567
2 30626 098.9372 220.4452 0037057 164.5204 222.9250 15.63794737360722
0 FENGYUN 1C DEB
1 30626U 99025ANH 13294.99883164  .01305560  00000-0  11851-1 0   571
2 30626 098.9369 220.7772 0037700 163.8798 260.1734 15.64371510360778
0 FENGYUN 1C DEB
1 30626U 99025ANH 13295.27046637  .01516081  00000-0  13261-1 0   589
2 30626 098.9366 221.1214 0037517 163.3350 349.8366 15.64884969360814
0 FENGYUN 1C DEB
1 30626U 99025ANH 13295.76497866  .01555061  00000-0  13198-1 0   598
2 30626 098.9358 221.7484 0037521 161.9732 256.4614 15.66033571360886
